IRIDIUM 39              
1 25042U 97069D   25090.03366645  .00001678  00000+0  43605-3 0  9995
2 25042  86.3886 244.6225 0017113 201.9475 158.0998 14.49056265437905
IRIDIUM 38              
1 25043U 97069E   25089.54177543  .00001058  00000+0  34363-3 0  9990
2 25043  86.3899 266.2494 0002704  45.8880 314.2540 14.38007155434653
IRIDIUM 42              
1 25077U 97077A   25090.56629556  .00000907  00000+0  30396-3 0  9990
2 25077  86.3901 271.8983 0002318  72.3753 287.7696 14.36252866430059
IRIDIUM 44              
1 25078U 97077B   25090.52175742  .00001070  00000+0  33290-3 0  9998
2 25078  86.3916 254.0278 0000480  33.2066 326.9163 14.40140579432551
IRIDIUM 45              
1 25104U 97082A   25090.47665276  .00025098  00000+0  98768-3 0  9991
2 25104  86.3545  85.5371 0120981 261.8520  96.8985 15.18881669440487
IRIDIUM 24              
1 25105U 97082B   25090.52496234  .00000924  00000+0  27586-3 0  9995
2 25105  86.3864 113.2546 0010571 346.4719  13.6196 14.41982938432273
IRIDIUM 51              
1 25262U 98018A   25090.47677419  .00034726  00000+0  92089-3 0  9996
2 25262  86.3808  94.1328 0098470 185.4763 174.5421 15.33272232435311
IRIDIUM 57              
1 25273U 98019B   25089.77227115  .00000716  00000+0  24068-3 0  9998
2 25273  86.4033 178.0908 0002161  93.1534 266.9910 14.35818721413532
